STARLINK-3528           
1 51714U 22016A   26176.38427688 -.00000062  00000+0  14191-4 0  9995
2 51714  53.1592 205.4932 0000979  54.7956 305.3127 15.08830909239683
STARLINK-3543           
1 51716U 22016C   26176.38332348  .00000012  00000+0  18828-4 0  9990
2 51716  53.1584 205.5193 0000667  54.0269 306.0784 15.08830839239689
STARLINK-3535           
1 51722U 22016J   26176.48637641 -.00001017  00000+0 -45865-4 0  9991
2 51722  53.1581 205.0553 0000674  36.9722 323.1316 15.08835069239691
STARLINK-3450           
1 51734U 22016W   26177.21403801  .00168287  00000+0  94579-2 0  9990
2 51734  53.1593 191.7282 0002727  84.1191 276.0112 15.12088038239942
STARLINK-3500           
1 51740U 22016AC  26177.19224544  .00176268  00000+0  98980-2 0  9997
2 51740  53.1604 191.8278 0002990  80.9747 279.1584 15.12075208239943
STARLINK-3605           
1 51805U 22017AP  26176.46429238  .00000788  00000+0  67609-4 0  9995
2 51805  53.1583 205.2327 0001104  35.9787 324.1279 15.08833614240511
