{
  "schema": "int-temerity-real-tle-snapshot/v1",
  "source": "celestrak",
  "group": "STARLINK",
  "format": "celestrak-gp-json",
  "source_url": "https://celestrak.org/NORAD/elements/gp.php?NAME=STARLINK&FORMAT=JSON",
  "downloaded_at": "2026-07-01T09:46:17.455Z",
  "generated_at": "2026-07-01T09:46:17.588Z",
  "fingerprint": "ee699b79",
  "shell_id": "starlink-real-53.2deg-545km",
  "catalog_count": 10658,
  "shell_count": 1056,
  "selected_count": 658,
  "mean_altitude_km": 545.46,
  "mean_inclination_deg": 53.1605,
  "mean_mean_motion_rev_per_day": 15.09305652,
  "layout": {
    "planes": 47,
    "satellites_per_plane": 14,
    "selection_strategy": "target-shell-raan-clusters-even-slot-sampling",
    "raan_cluster_threshold_deg": 1.5,
    "target_inclination_deg": 53,
    "target_altitude_km": 550,
    "selected_shell_key": "53.0deg-550km",
    "target_shell_distance": 21.03
  },
  "satellites": [
    {
      "satellite_id": "P28-S13",
      "norad_id": 51734,
      "satellite_name": "STARLINK-3450",
      "cospar_id": "2022-016W",
      "shell_id": "starlink-real-53.2deg-545km",
      "plane_id": 27,
      "slot_id": 12,
      "epoch": "2026-06-26T05:08:12.884064",
      "inclination": 53.1593,
      "raan": 191.72820000000002,
      "eccentricity": 0.0002727,
      "argument_of_perigee": 84.1191,
      "mean_anomaly": 276.0111999999999,
      "mean_motion": 15.12088038,
      "bstar": 0.0094579,
      "status": "active",
      "raw_omm": {
        "OBJECT_NAME": "STARLINK-3450",
        "OBJECT_ID": "2022-016W",
        "EPOCH": "2026-06-26T05:08:12.884064",
        "MEAN_MOTION": 15.12088038,
        "ECCENTRICITY": 0.0002727,
        "INCLINATION": 53.1593,
        "RA_OF_ASC_NODE": 191.7282,
        "ARG_OF_PERICENTER": 84.1191,
        "MEAN_ANOMALY": 276.0112,
        "EPHEMERIS_TYPE": 0,
        "CLASSIFICATION_TYPE": "U",
        "NORAD_CAT_ID": 51734,
        "ELEMENT_SET_NO": 999,
        "REV_AT_EPOCH": 23994,
        "BSTAR": 0.0094579,
        "MEAN_MOTION_DOT": 0.00168287,
        "MEAN_MOTION_DDOT": 0
      },
      "source": "celestrak",
      "source_url": "https://celestrak.org/NORAD/elements/gp.php?NAME=STARLINK&FORMAT=JSON",
      "catalog_fingerprint": "ee699b79"
    },
    {
      "satellite_id": "P28-S14",
      "norad_id": 51740,
      "satellite_name": "STARLINK-3500",
      "cospar_id": "2022-016AC",
      "shell_id": "starlink-real-53.2deg-545km",
      "plane_id": 27,
      "slot_id": 13,
      "epoch": "2026-06-26T04:36:50.006016",
      "inclination": 53.1604,
      "raan": 191.82780000000002,
      "eccentricity": 0.000299,
      "argument_of_perigee": 80.97469999999998,
      "mean_anomaly": 279.15840000000003,
      "mean_motion": 15.12075208,
      "bstar": 0.009898,
      "status": "active",
      "raw_omm": {
        "OBJECT_NAME": "STARLINK-3500",
        "OBJECT_ID": "2022-016AC",
        "EPOCH": "2026-06-26T04:36:50.006016",
        "MEAN_MOTION": 15.12075208,
        "ECCENTRICITY": 0.000299,
        "INCLINATION": 53.1604,
        "RA_OF_ASC_NODE": 191.8278,
        "ARG_OF_PERICENTER": 80.9747,
        "MEAN_ANOMALY": 279.1584,
        "EPHEMERIS_TYPE": 0,
        "CLASSIFICATION_TYPE": "U",
        "NORAD_CAT_ID": 51740,
        "ELEMENT_SET_NO": 999,
        "REV_AT_EPOCH": 23994,
        "BSTAR": 0.009898,
        "MEAN_MOTION_DOT": 0.00176268,
        "MEAN_MOTION_DDOT": 0
      },
      "source": "celestrak",
      "source_url": "https://celestrak.org/NORAD/elements/gp.php?NAME=STARLINK&FORMAT=JSON",
      "catalog_fingerprint": "ee699b79"
    },
    {
      "satellite_id": "P29-S01",
      "norad_id": 51722,
      "satellite_name": "STARLINK-3535",
      "cospar_id": "2022-016J",
      "shell_id": "starlink-real-53.2deg-545km",
      "plane_id": 28,
      "slot_id": 0,
      "epoch": "2026-06-25T11:40:22.921824",
      "inclination": 53.1581,
      "raan": 205.0553,
      "eccentricity": 0.0000674,
      "argument_of_perigee": 36.97219999999999,
      "mean_anomaly": 323.13159999999993,
      "mean_motion": 15.08835069,
      "bstar": -0.000045865,
      "status": "active",
      "raw_omm": {
        "OBJECT_NAME": "STARLINK-3535",
        "OBJECT_ID": "2022-016J",
        "EPOCH": "2026-06-25T11:40:22.921824",
        "MEAN_MOTION": 15.08835069,
        "ECCENTRICITY": 0.0000674,
        "INCLINATION": 53.1581,
        "RA_OF_ASC_NODE": 205.0553,
        "ARG_OF_PERICENTER": 36.9722,
        "MEAN_ANOMALY": 323.1316,
        "EPHEMERIS_TYPE": 0,
        "CLASSIFICATION_TYPE": "U",
        "NORAD_CAT_ID": 51722,
        "ELEMENT_SET_NO": 999,
        "REV_AT_EPOCH": 23969,
        "BSTAR": -0.000045865,
        "MEAN_MOTION_DOT": -0.00001017,
        "MEAN_MOTION_DDOT": 0
      },
      "source": "celestrak",
      "source_url": "https://celestrak.org/NORAD/elements/gp.php?NAME=STARLINK&FORMAT=JSON",
      "catalog_fingerprint": "ee699b79"
    },
    {
      "satellite_id": "P29-S02",
      "norad_id": 51716,
      "satellite_name": "STARLINK-3543",
      "cospar_id": "2022-016C",
      "shell_id": "starlink-real-53.2deg-545km",
      "plane_id": 28,
      "slot_id": 1,
      "epoch": "2026-06-25T09:11:59.148672",
      "inclination": 53.1584,
      "raan": 205.51929999999993,
      "eccentricity": 0.0000667,
      "argument_of_perigee": 54.02690000000001,
      "mean_anomaly": 306.0784,
      "mean_motion": 15.08830839,
      "bstar": 0.000018828,
      "status": "active",
      "raw_omm": {
        "OBJECT_NAME": "STARLINK-3543",
        "OBJECT_ID": "2022-016C",
        "EPOCH": "2026-06-25T09:11:59.148672",
        "MEAN_MOTION": 15.08830839,
        "ECCENTRICITY": 0.0000667,
        "INCLINATION": 53.1584,
        "RA_OF_ASC_NODE": 205.5193,
        "ARG_OF_PERICENTER": 54.0269,
        "MEAN_ANOMALY": 306.0784,
        "EPHEMERIS_TYPE": 0,
        "CLASSIFICATION_TYPE": "U",
        "NORAD_CAT_ID": 51716,
        "ELEMENT_SET_NO": 999,
        "REV_AT_EPOCH": 23968,
        "BSTAR": 0.000018828,
        "MEAN_MOTION_DOT": 1.2e-7,
        "MEAN_MOTION_DDOT": 0
      },
      "source": "celestrak",
      "source_url": "https://celestrak.org/NORAD/elements/gp.php?NAME=STARLINK&FORMAT=JSON",
      "catalog_fingerprint": "ee699b79"
    },
    {
      "satellite_id": "P29-S03",
      "norad_id": 51805,
      "satellite_name": "STARLINK-3605",
      "cospar_id": "2022-017AP",
      "shell_id": "starlink-real-53.2deg-545km",
      "plane_id": 28,
      "slot_id": 2,
      "epoch": "2026-06-25T11:08:34.861632",
      "inclination": 53.1583,
      "raan": 205.23270000000002,
      "eccentricity": 0.0001104,
      "argument_of_perigee": 35.9787,
      "mean_anomaly": 324.12789999999995,
      "mean_motion": 15.08833614,
      "bstar": 0.000067609,
      "status": "active",
      "raw_omm": {
        "OBJECT_NAME": "STARLINK-3605",
        "OBJECT_ID": "2022-017AP",
        "EPOCH": "2026-06-25T11:08:34.861632",
        "MEAN_MOTION": 15.08833614,
        "ECCENTRICITY": 0.0001104,
        "INCLINATION": 53.1583,
        "RA_OF_ASC_NODE": 205.2327,
        "ARG_OF_PERICENTER": 35.9787,
        "MEAN_ANOMALY": 324.1279,
        "EPHEMERIS_TYPE": 0,
        "CLASSIFICATION_TYPE": "U",
        "NORAD_CAT_ID": 51805,
        "ELEMENT_SET_NO": 999,
        "REV_AT_EPOCH": 24051,
        "BSTAR": 0.000067609,
        "MEAN_MOTION_DOT": 0.00000788,
        "MEAN_MOTION_DDOT": 0
      },
      "source": "celestrak",
      "source_url": "https://celestrak.org/NORAD/elements/gp.php?NAME=STARLINK&FORMAT=JSON",
      "catalog_fingerprint": "ee699b79"
    },
    {
      "satellite_id": "P29-S04",
      "norad_id": 51714,
      "satellite_name": "STARLINK-3528",
      "cospar_id": "2022-016A",
      "shell_id": "starlink-real-53.2deg-545km",
      "plane_id": 28,
      "slot_id": 3,
      "epoch": "2026-06-25T09:13:21.522432",
      "inclination": 53.1592,
      "raan": 205.4932,
      "eccentricity": 0.0000979,
      "argument_of_perigee": 54.79559999999998,
      "mean_anomaly": 305.31269999999995,
      "mean_motion": 15.08830909,
      "bstar": 0.000014191,
      "status": "active",
      "raw_omm": {
        "OBJECT_NAME": "STARLINK-3528",
        "OBJECT_ID": "2022-016A",
        "EPOCH": "2026-06-25T09:13:21.522432",
        "MEAN_MOTION": 15.08830909,
        "ECCENTRICITY": 0.0000979,
        "INCLINATION": 53.1592,
        "RA_OF_ASC_NODE": 205.4932,
        "ARG_OF_PERICENTER": 54.7956,
        "MEAN_ANOMALY": 305.3127,
        "EPHEMERIS_TYPE": 0,
        "CLASSIFICATION_TYPE": "U",
        "NORAD_CAT_ID": 51714,
        "ELEMENT_SET_NO": 999,
        "REV_AT_EPOCH": 23968,
        "BSTAR": 0.000014191,
        "MEAN_MOTION_DOT": -6.2e-7,
        "MEAN_MOTION_DDOT": 0
      },
      "source": "celestrak",
      "source_url": "https://celestrak.org/NORAD/elements/gp.php?NAME=STARLINK&FORMAT=JSON",
      "catalog_fingerprint": "ee699b79"
    }
  ]
}